IRIDIUM 136             
1 42962U 17061H   23209.00470128  .00000315  00000+0  10544-3 0  9991
2 42962  86.3966 106.2616 0001933  81.8145 278.3270 14.34220314303591
